[{"OBJECT_NAME":"STARLINK-5117","OBJECT_ID":"2022-141R","EPOCH":"2026-03-09T04:43:57.204768","MEAN_MOTION":15.08832908,"ECCENTRICITY":0.00014598,"INCLINATION":53.2191,"RA_OF_ASC_NODE":6.3033,"ARG_OF_PERICENTER":94.0431,"MEAN_ANOMALY":266.0728,"EPHEMERIS_TYPE":0,"CLASSIFICATION_TYPE":"U","NORAD_CAT_ID":54172,"ELEMENT_SET_NO":999,"REV_AT_EPOCH":18578,"BSTAR":-1.7147616e-5,"MEAN_MOTION_DOT":-5.61e-6,"MEAN_MOTION_DDOT":0},{"OBJECT_NAME":"OBJECT T","OBJECT_ID":"2018-099T","EPOCH":"2026-03-09T14:32:29.418720","MEAN_MOTION":15.09436097,"ECCENTRICITY":0.0004517,"INCLINATION":97.4347,"RA_OF_ASC_NODE":115.9313,"ARG_OF_PERICENTER":320.9739,"MEAN_ANOMALY":39.1164,"EPHEMERIS_TYPE":0,"CLASSIFICATION_TYPE":"U","NORAD_CAT_ID":43775,"ELEMENT_SET_NO":999,"REV_AT_EPOCH":39729,"BSTAR":0.00032877,"MEAN_MOTION_DOT":5.2e-5,"MEAN_MOTION_DDOT":0}]
